CAS-2T & KS-1Q          
1 41847U 16066G   20204.13561749  .00000046  00000-0  16591-4 0  9993
2 41847  98.6514 254.9971 0366674 125.5039 238.0939 14.38078979194401
NAYIF-1 (EO-88)         
1 42017U 17008BX  20203.89725749  .00000897  00000-0  37029-4 0  9997
2 42017  97.3581 270.9555 0005905 184.2353 175.8837 15.26574125190802
MAX VALIER SAT          
1 42778U 17036P   20203.90959268  .00000519  00000-0  25212-4 0  9991
2 42778  97.3026 256.5889 0010417 259.3390 100.6674 15.22668546170977
RADFXSAT (FOX-1B)       
1 43017U 17073E   20203.69076986  .00000256  00000-0  25979-4 0  9990
2 43017  97.7210 114.6057 0255570 299.0136  58.5683 14.78974717144224
FOX-1D (AO-92)          
1 43137U 18004AC  20203.88593720  .00000587  00000-0  27056-4 0  9994
2 43137  97.4443 274.8123 0007599 300.1076  59.9407 15.24175324140288
DIWATA-2B               
1 43678U 18084H   20204.49093736  .00000063  00000-0  12017-4 0  9992
2 43678  97.8885 322.9003 0011241  65.6916 294.5491 14.91638942 94246
ES'HAIL 2               
1 43700U 18090A   20203.78452280  .00000143  00000-0  00000-0 0  9993
2 43700   0.0170  58.4993 0001280  96.0257  93.6707  1.00270471  6057
FOX-1CLIFF (AO-95)      
1 43770U 18099N   20203.91121499 -.00000218  00000-0 -14670-4 0  9996
2 43770  97.7044 274.6891 0016101  83.1648 277.1403 14.95008576 89062
ITASAT 1                
1 43786U 18099AE  20204.16802582 -.00000029  00000-0  25399-5 0  9990
2 43786  97.7062 275.3858 0016773  76.4486 283.8602 14.95346563 89123
JY1SAT (JO-97)          
1 43803U 18099AX  20203.91078447 -.00000241  00000-0 -16558-4 0  9990
2 43803  97.7021 274.9437 0016636  77.5349 282.7732 14.95525674 89083
PSAT2 (NO-104)          
1 44354U 19036R   20203.23978049  .00007952  00000-0  11348-3 0  9991
2 44354  28.5313 158.6527 0362444 311.9700  45.0543 15.03894546 58900
BRICSAT2 (NO-103)       
1 44355U 19036S   20204.51242322  .00018660  00000-0  25878-3 0  9993
2 44355  28.5309 139.7048 0339569 342.7813  16.1502 15.09691294 59202
JAISAT-1                
1 44419U 19038F   20203.81804831  .00000540  00000-0  34356-4 0  9997
2 44419  97.5406 165.0157 0022115  16.6687 343.5266 15.12824925 57791
DUCHIFAT-3              
1 44854U 19089C   20204.46349160  .00000092  00000-0  13919-4 0  9991
2 44854  36.9691 251.4502 0009526 342.2716  17.7690 14.99085891 33557
RS-44 & BREEZE-KM R/B   
1 44909U 19096E   20203.75924529  .00000013  00000-0  60351-6 0  9996
2 44909  82.5235 332.5159 0218142 146.0866 215.4404 12.79708151 26571
ORBITAL FACTORY 2 (OF-2)
1 45113U 19071C   20204.15559261  .00000602  00000-0  29884-4 0  9997
2 45113  51.6430 195.8990 0012893 180.7160 179.3805 15.33447139 26452
HUSKYSAT-1              
1 45119U 19071J   20204.25950369  .00000874  00000-0  37944-4 0  9995
2 45119  51.6427 195.0936 0012165 177.1657 182.9396 15.33656843 26469
